NORAD_CAT_ID,OBJECT_NAME,OBJECT_TYPE,EPOCH,MEAN_MOTION,ECCENTRICITY,INCLINATION,RA_OF_ASC_NODE,ARG_OF_PERICENTER,MEAN_ANOMALY,BSTAR,MEAN_MOTION_DOT,MEAN_MOTION_DDOT,TLE_LINE0,TLE_LINE1,TLE_LINE2,SEMIMAJOR_AXIS,PERIOD,APOGEE,PERIGEE,DECAYED
56486.0,STARLINK-6201,PAYLOAD,2023-07-15 00:34:08,15.69911073,0.0003078,69.9996,61.7036,272.9551,87.1292,-2.3622e-05,-3.05e-05,0.0,0 STARLINK-6201,1 56486U 23064AQ  23196.02371433 -.00003050  00000-0 -23622-4 0  9997,2 56486  69.9996  61.7036 0003078 272.9551  87.1292 15.69911073 10621,6737.288,91.725,361.227,357.08,0.0
56486.0,STARLINK-6201,PAYLOAD,2023-07-15 17:23:24,15.69922305,0.0003972,69.9988,59.7316,278.2149,81.8596,-1.1702e-05,-1.62e-05,0.0,0 STARLINK-6201,1 56486U 23064AQ  23196.72459027 -.00001620  00000-0 -11702-4 0  9997,2 56486  69.9988  59.7316 0003972 278.2149  81.8596 15.69922305 10735,6737.256,91.724,361.797,356.445,0.0
56486.0,STARLINK-6201,PAYLOAD,2023-07-16 16:19:41,15.69932716,0.0003801,69.9981,57.045,272.2681,87.8079,-6.5285e-06,-9.98e-06,0.0,0 STARLINK-6201,1 56486U 23064AQ  23197.68033821 -.00000998  00000-0 -65285-5 0  9996,2 56486  69.9981  57.0450 0003801 272.2681  87.8079 15.69932716 10889,6737.226,91.724,361.652,356.531,0.0
56486.0,STARLINK-6201,PAYLOAD,2023-07-17 18:19:29,15.6991261,0.0003814,69.9978,53.9991,271.6527,88.4232,-1.1388e-05,-1.582e-05,0.0,0 STARLINK-6201,1 56486U 23064AQ  23198.76353107 -.00001582  00000-0 -11388-4 0  9992,2 56486  69.9978  53.9991 0003814 271.6527  88.4232 15.69912610 11055,6737.284,91.725,361.719,356.579,0.0
56486.0,STARLINK-6201,PAYLOAD,2023-07-18 00:26:29,15.69918897,0.0003533,69.998,53.2822,272.9796,87.0995,3.1501e-07,-1.75e-06,0.0,0 STARLINK-6201,1 56486U 23064AQ  23199.01839597 -.00000175  00000-0  31501-6 0  9990,2 56486  69.9980  53.2822 0003533 272.9796  87.0995 15.69918897 11092,6737.266,91.724,361.511,356.751,0.0
56486.0,STARLINK-6201,PAYLOAD,2023-07-18 15:44:00,15.6992975,0.0003757,69.9984,51.4906,271.7589,88.3176,1.6788e-05,1.807e-05,0.0,0 STARLINK-6201,1 56486U 23064AQ  23199.65555648  .00001807  00000-0  16788-4 0  9992,2 56486  69.9984  51.4906 0003757 271.7589  88.3176 15.69929750 11190,6737.235,91.724,361.631,356.569,0.0
56486.0,STARLINK-6201,PAYLOAD,2023-07-19 00:54:31,15.69921887,0.0004276,69.9981,50.4175,272.7877,87.2829,-2.4677e-07,-2.43e-06,0.0,0 STARLINK-6201,1 56486U 23064AQ  23200.03786012 -.00000243  00000-0 -24677-6 0  9991,2 56486  69.9981  50.4175 0004276 272.7877  87.2829 15.69921887 11255,6737.257,91.724,362.003,356.242,0.0
56486.0,STARLINK-6201,PAYLOAD,2023-07-21 00:18:50,15.69924605,0.0003298,69.9992,44.8605,273.7769,86.3049,3.0685e-05,3.478e-05,0.0,0 STARLINK-6201,1 56486U 23064AQ  23202.01308216  .00003478  00000-0  30685-4 0  9992,2 56486  69.9992  44.8605 0003298 273.7769  86.3049 15.69924605 11565,6737.25,91.724,361.337,356.893,0.0
56486.0,STARLINK-6201,PAYLOAD,2023-07-24 12:25:12,15.69927819,0.0003811,69.9975,35.009,266.2772,93.7987,1.0481e-05,1.048e-05,0.0,0 STARLINK-6201,1 56486U 23064AQ  23205.51750113  .00001048  00000-0  10481-4 0  9990,2 56486  69.9975  35.0090 0003811 266.2772  93.7987 15.69927819 11763,6737.241,91.724,361.673,356.538,0.0
56486.0,STARLINK-6201,PAYLOAD,2023-07-25 00:39:13,15.69924455,0.0003883,69.9991,33.5754,268.4793,91.5958,3.0938e-05,3.509e-05,0.0,0 STARLINK-6201,1 56486U 23064AQ  23206.02723604  .00003509  00000-0  30938-4 0  9995,2 56486  69.9991  33.5754 0003883 268.4793  91.5958 15.69924455 11843,6737.25,91.724,361.731,356.499,0.0
56486.0,STARLINK-6201,PAYLOAD,2023-07-26 11:49:31,15.69926162,0.0003829,69.9966,29.4552,267.5225,92.5532,1.1235e-05,1.138e-05,0.0,0 STARLINK-6201,1 56486U 23064AQ  23207.49272051  .00001138  00000-0  11235-4 0  9997,2 56486  69.9966  29.4552 0003829 267.5225  92.5532 15.69926162 12077,6737.245,91.724,361.69,356.531,0.0
56486.0,STARLINK-6201,PAYLOAD,2023-07-26 14:53:00,15.69937745,0.0003573,69.9965,29.0964,263.6303,96.4486,2.3587e-05,2.626e-05,0.0,0 STARLINK-6201,1 56486U 23064AQ  23207.62014417  .00002626  00000-0  23587-4 0  9998,2 56486  69.9965  29.0964 0003573 263.6303  96.4486 15.69937745 12440,6737.212,91.723,361.484,356.67,0.0
56486.0,STARLINK-6201,PAYLOAD,2023-07-27 21:28:03,15.69929296,0.0003603,69.9978,25.5144,268.5859,91.4923,2.5688e-06,9.6e-07,0.0,0 STARLINK-6201,1 56486U 23064AQ  23208.89448774  .00000096  00000-0  25688-5 0  9999,2 56486  69.9978  25.5144 0003603 268.5859  91.4923 15.69929296 12295,6737.236,91.724,361.529,356.674,0.0
56486.0,STARLINK-6201,PAYLOAD,2023-07-28 05:06:49,15.69922025,0.0004291,69.9977,24.6174,258.452,101.6194,-6.3418e-06,-9.76e-06,0.0,0 STARLINK-6201,1 56486U 23064AQ  23209.21307398 -.00000976  00000-0 -63418-5 0  9994,2 56486  69.9977  24.6174 0004291 258.4520 101.6194 15.69922025 12695,6737.257,91.724,362.013,356.231,0.0
56486.0,STARLINK-6201,PAYLOAD,2023-07-28 14:17:19,15.6993443,0.0003857,69.9978,23.542,269.9019,90.1734,1.3514e-06,-5.1e-07,0.0,0 STARLINK-6201,1 56486U 23064AQ  23209.59536644 -.00000051  00000-0  13514-5 0  9998,2 56486  69.9978  23.5420 0003857 269.9019  90.1734 15.69934430 12757,6737.222,91.724,361.685,356.488,0.0
56486.0,STARLINK-6201,PAYLOAD,2023-07-28 21:56:05,15.69929342,0.0004038,69.9982,22.6466,269.9553,90.118,-4.0807e-06,-7.04e-06,0.0,0 STARLINK-6201,1 56486U 23064AQ  23209.91395256 -.00000704  00000-0 -40807-5 0  9997,2 56486  69.9982  22.6466 0004038 269.9553  90.1180 15.69929342 12804,6737.236,91.724,361.822,356.381,0.0
56486.0,STARLINK-6201,PAYLOAD,2023-07-29 10:10:06,15.69907476,0.000392,69.9999,21.2145,270.7498,89.3248,3.9619e-05,4.551e-05,0.0,0 STARLINK-6201,1 56486U 23064AQ  23210.42368852  .00004551  00000-0  39619-4 0  9997,2 56486  69.9999  21.2145 0003920 270.7498  89.3248 15.69907476 12885,6737.299,91.725,361.805,356.523,0.0
56486.0,STARLINK-6201,PAYLOAD,2023-07-30 10:38:09,15.69892823,0.0004208,69.998,18.3462,261.7916,98.2802,5.6041e-05,6.523e-05,0.0,0 STARLINK-6201,1 56486U 23064AQ  23211.44316735  .00006523  00000-0  56041-4 0  9992,2 56486  69.9980  18.3462 0004208 261.7916  98.2802 15.69892823 13042,6737.341,91.726,362.041,356.371,0.0
56486.0,STARLINK-6201,PAYLOAD,2023-07-30 13:41:39,15.69927491,0.000359,69.9986,17.9883,262.0499,98.0289,5.6699e-06,4.69e-06,0.0,0 STARLINK-6201,1 56486U 23064AQ  23211.57059036  .00000469  00000-0  56699-5 0  9997,2 56486  69.9986  17.9883 0003590 262.0499  98.0289 15.69927491 13062,6737.241,91.724,361.525,356.688,0.0
56486.0,STARLINK-6201,PAYLOAD,2023-07-31 04:59:10,15.69916581,0.0003721,69.9986,16.1971,259.274,100.8037,-6.2358e-07,-2.88e-06,0.0,0 STARLINK-6201,1 56486U 23064AQ  23212.20776392 -.00000288  00000-0 -62358-6 0  9990,2 56486  69.9986  16.1971 0003721 259.2740 100.8037 15.69916581 13166,6737.273,91.725,361.645,356.631,0.0
56486.0,STARLINK-6201,PAYLOAD,2023-07-31 18:44:55,15.69932734,0.0003275,69.999,14.585,261.3165,98.766,2.1873e-05,2.419e-05,0.0,0 STARLINK-6201,1 56486U 23064AQ  23212.78120178  .00002419  00000-0  21873-4 0  9999,2 56486  69.9990  14.5850 0003275 261.3165  98.7660 15.69932734 13253,6737.226,91.724,361.298,356.885,0.0
56486.0,STARLINK-6201,PAYLOAD,2023-07-31 20:16:41,15.69923079,0.0004272,69.9979,14.4075,270.9743,89.0963,3.0748e-05,3.486e-05,0.0,0 STARLINK-6201,1 56486U 23064AQ  23212.84492350  .00003486  00000-0  30748-4 0  9996,2 56486  69.9979  14.4075 0004272 270.9743  89.0963 15.69923079 13266,6737.254,91.724,361.997,356.241,0.0
56486.0,STARLINK-6201,PAYLOAD,2023-08-01 14:37:43,15.69921843,0.000311,69.999,12.2568,264.3685,95.7156,7.8533e-07,-1.18e-06,0.0,0 STARLINK-6201,1 56486U 23064AQ  23213.60953226 -.00000118  00000-0  78533-6 0  9991,2 56486  69.9990  12.2568 0003110 264.3685  95.7156 15.69921843 13382,6737.258,91.724,361.218,357.027,0.0
56486.0,STARLINK-6201,PAYLOAD,2023-08-01 20:44:43,15.699305,0.000359,69.9981,11.5396,270.594,89.4845,9.8557e-06,9.73e-06,0.0,0 STARLINK-6201,1 56486U 23064AQ  23213.86439202  .00000973  00000-0  98557-5 0  9997,2 56486  69.9981  11.5396 0003590 270.5940  89.4845 15.69930500 13428,6737.233,91.724,361.517,356.679,0.0
56486.0,STARLINK-6201,PAYLOAD,2023-08-02 10:30:29,15.69922862,0.0003704,69.9978,9.9263,267.7389,92.3383,1.6907e-05,1.82e-05,0.0,0 STARLINK-6201,1 56486U 23064AQ  23214.43784491  .00001820  00000-0  16907-4 0  9994,2 56486  69.9978   9.9263 0003704 267.7389  92.3383 15.69922862 13512,6737.255,91.724,361.615,356.624,0.0
56486.0,STARLINK-6201,PAYLOAD,2023-08-02 19:41:00,15.6993232,0.0003757,69.9978,8.8528,276.0439,84.0328,1.1651e-05,1.189e-05,0.0,0 STARLINK-6201,1 56486U 23064AQ  23214.82014125  .00001189  00000-0  11651-4 0  9996,2 56486  69.9978   8.8528 0003757 276.0439  84.0328 15.69932320 13574,6737.228,91.724,361.624,356.561,0.0
56486.0,STARLINK-6201,PAYLOAD,2023-08-03 10:58:32,15.69916138,0.0003034,69.9972,7.06,273.1662,86.9186,7.2333e-06,6.57e-06,0.0,0 STARLINK-6201,1 56486U 23064AQ  23215.45732215  .00000657  00000-0  72333-5 0  9997,2 56486  69.9972   7.0600 0003034 273.1662  86.9186 15.69916138 13677,6737.274,91.725,361.183,357.095,0.0
56486.0,STARLINK-6201,PAYLOAD,2023-08-03 20:09:02,15.6992592,0.0003603,69.9979,5.9856,267.3659,92.7125,1.1757e-05,1.201e-05,0.0,0 STARLINK-6201,1 56486U 23064AQ  23215.83961527  .00001201  00000-0  11757-4 0  9997,2 56486  69.9979   5.9856 0003603 267.3659  92.7125 15.69925920 13731,6737.246,91.724,361.538,356.684,0.0
56486.0,STARLINK-6201,PAYLOAD,2023-08-04 09:54:49,15.69916424,0.0003484,69.9981,4.3752,270.0208,90.0588,-3.5949e-06,-6.45e-06,0.0,0 STARLINK-6201,1 56486U 23064AQ  23216.41307357 -.00000645  00000-0 -35949-5 0  9990,2 56486  69.9981   4.3752 0003484 270.0208  90.0588 15.69916424 13823,6737.273,91.725,361.485,356.791,0.0
56486.0,STARLINK-6201,PAYLOAD,2023-08-04 19:05:19,15.69935405,0.0003624,69.9974,3.2997,267.4299,92.6482,7.9257e-06,7.41e-06,0.0,0 STARLINK-6201,1 56486U 23064AQ  23216.79535919  .00000741  00000-0  79257-5 0  9993,2 56486  69.9974   3.2997 0003624 267.4299  92.6482 15.69935405 13887,6737.219,91.724,361.525,356.642,0.0
